STARLINK-35481          
1 66247U 25245P   25320.83335647 -.01940823  00000+0 -20295-1 0  9991
2 66247  53.1587  92.3564 0001313  57.2091  94.5106 15.66935794  3943
STARLINK-35416          
1 66248U 25245Q   25320.83335647 -.01939396  00000+0 -20280-1 0  9999
2 66248  53.1591  92.3530 0001349  56.0284  97.6097 15.66933851  3891
STARLINK-35304          
1 66249U 25245R   25320.83335647 -.01957200  00000+0 -20482-1 0  9998
2 66249  53.1589  92.3406 0001204  56.5585 102.8258 15.66946382  3734
STARLINK-35338          
1 66250U 25245S   25320.83335647 -.01936770  00000+0 -20250-1 0  9992
2 66250  53.1588  92.3487 0001342  54.5272 101.0280 15.66932144  3847
STARLINK-35485          
1 66251U 25245T   25320.83335647 -.01939486  00000+0 -20281-1 0  9994
2 66251  53.1589  92.3446 0001215  55.1706 102.2986 15.66934913  3732
STARLINK-35483          
1 66252U 25245U   25320.83335647 -.01933355  00000+0 -20212-1 0  9998
2 66252  53.1586  92.3359 0001237  53.0855 108.2185 15.66930690  3891
STARLINK-35486          
1 66253U 25245V   25320.83335647 -.01942646  00000+0 -20317-1 0  9998
2 66253  53.1588  92.3325 0001319  60.7427 102.4806 15.66935621  3736
STARLINK-35488          
1 66254U 25245W   25320.83335647 -.01944690  00000+0 -20339-1 0  9994
2 66254  53.1588  92.3277 0001297  60.8228 104.3140 15.66938841  3940
STARLINK-35616          
1 66255U 25245X   25320.83335647 -.01936628  00000+0 -20247-1 0  9995
2 66255  53.1591  92.3241 0001298  61.7345 105.3190 15.66934279  3944
STARLINK-35619          
1 66256U 25245Y   25320.83335647 -.01958423  00000+0 -20498-1 0  9991
2 66256  53.1590  92.3121 0001138  60.5420 112.2644 15.66944931  3942
STARLINK-35615          
1 66257U 25245Z   25320.83335647 -.01943197  00000+0 -20323-1 0  9991
2 66257  53.1591  92.3159 0001220  59.7050 111.1839 15.66936973  3947
STARLINK-34650          
1 66258U 25245AA  25320.83335647 -.01949572  00000+0 -20396-1 0  9995
2 66258  53.1592  92.3199 0001205  63.1784 105.7934 15.66940669  3941
